name,Emp_ID,Sanctuary_ID,Nation,State,district,city,street,block,department_ID
Artur Koeppe,mUWmoeQ0,93,Spain,Illinois,ohCuCtm,Vancouver,604-8265 Arcu. Rd.,144,4
Gillian Shaw,tFugUYv1,44,United States,Virginia,RrFlrOWR,Montgomery,P.O. Box 249; 4757 Ante Rd.,144,7
Deeyn Trahmel,rrmqrM2,1,Netherlands,New York,pvxxI,Birmingham,6299 Ut Rd.,111,8
Roselin Adnams,iDShZ3,96,Vietnam,Pennsylvania,XxKJW,White Plains,Ap #386-944 Lorem; Avenue,83,8
Gav Lillecrap,lkcSYgD4,13,Nigeria,Texas,tkegKtRy,Toledo,3845 Ullamcorper Rd.,114,11
Gerti Kennham,mhjvZcGzy5,66,United Kingdom,Iowa,fkouY,Washington,Ap #272-2258 Integer Road,78,11
Ross Bloxham,bAOMWiFGH6,83,Colombia,Texas,OcIhjuW,Cumming,Ap #407-6413 Ullamcorper Avenue,60,1
Arlie Brien,akpHvbsb7,19,Costa Rica,New York,kStsUvGiS,Charlotte,Ap #853-7666 Parturient Rd.,142,0
Saloma MacNair,uRBrnUsIu8,32,Canada,Florida,ViSQoTzT,Huntington,2492 Adipiscing Rd.,118,6
Gav Lillecrap,upvrXvfZ9,33,Germany,Oklahoma,RIygHmJ,San Antonio,Ap #237-2449 At; Rd.,117,6
Nikolaos Kubica,xKzxhw10,4,Norway,Florida,BblBIMpcH,Cumming,Ap #400-2838 Massa Rd.,49,11
Aubrey Westoff,oOKAP11,18,Australia,Pennsylvania,iaIDUrpii,Portland,P.O. Box 580; 9201 Praesent Rd.,100,7
Gerti Kennham,qQiKv12,20,France,Oklahoma,hdbcULB,Washington,Ap #243-5033 Tempus Street,16,11
Rosalie Lamacraft,LQCDp13,2,United States,North Carolina,kpnvPeD,York,157-8722 Tortor. Ave,136,11
Audry Bransgrove,RgwFIG14,13,United States,Arizona,Ljbloidq,Denver,P.O. Box 423; 3920 Eu Rd.,28,1
Theodore Erley,loKMUM15,26,Vietnam,Iowa,ytMnE,San Francisco,289-6165 Semper St.,21,4
Yorgos Fillimore,MusxbYMC16,30,Netherlands,Texas,BxdMUa,Columbus,1702 Eros Ave,141,5
Estrella Eyckelberg,WiMBCAn17,68,Italy,Colorado,uGpJl,Albany,206-7682 Sed Avenue,48,8
Filbert Jolliman,WoTSgN18,98,Philippines,Texas,lyzcG,New York City,Ap #376-8617 Feugiat Ave,114,7
Marin Twentyman,XSSoIvm19,28,Poland,Alabama,hkuAdx,Austin,663-5352 At; St.,137,11
Ad Golagley,UGnvdLoSJ20,37,Vietnam,Arizona,JJvqMUT,Davenport,406-1258 Urna. Rd.,58,4
Alan Fretter,wCOpQzVHw21,84,Canada,Texas,PtCufQ,Nashville,2811 Pharetra Road,63,4
Idaline Statefield,wtiaXUTgO22,91,Russian Federation,Michigan,cNcuPJO,Riverside,P.O. Box 779; 4887 Urna. Av.,26,6
Katleen Stonary,tDmgwgJLN23,85,Russian Federation,New Jersey,niATM,Cleveland,P.O. Box 285; 4142 Mollis. Road,11,10
Leona Ferentz,hGQrQDj24,76,Austria,Texas,nrjMnGXb,Las Vegas,Ap #874-8792 Adipiscing. Avenue,88,5
Gwendolin Gwinnell,HKaUdL25,37,United States,Texas,QwVYNBbU,Flushing,1353 Enim; Street,112,5
Ricky Curwood,QKMDW26,5,Colombia,Tennessee,IabkeWn,Topeka,355-2416 Adipiscing St.,81,2
Lorna Stronough,HNCKQu27,89,Norway,Pennsylvania,ugyYrA,Hollywood,Ap #436-8061 Sem; Ave,99,8
Barbara Tapper,nlCacOAy28,88,Philippines,Florida,uDiKaJnA,Helena,709-5682 Integer Rd.,36,1
Gibb Windle,Hzxdsi29,61,Turkey,West Virginia,jwSpvwxIT,Cleveland,2492 Adipiscing Rd.,145,2
Reube Feldbrin,OCTEwboA30,74,France,South Carolina,GOXoD,Arlington,Ap #922-8969 Duis Av.,35,2
Joya Blanckley,uaABX31,88,South Africa,Virginia,gsZLAyRO,Miami,3074 Non St.,7,0
Harmon Pizer,xtprSS32,90,Norway,District of Columbia,Ozkbjmp,Pittsburgh,P.O. Box 580; 9201 Praesent Rd.,131,6
Alan Fretter,ZzmZwSjgK33,20,Australia,Maryland,aPNGgD,Houston,P.O. Box 465; 4276 Neque Street,54,7
Kipp Micklem,RahtnkZ34,14,Germany,Virginia,EvaOU,Jacksonville,Ap #886-2034 Orci; Rd.,128,1
Catha Argont,NcjIV35,10,United Kingdom,California,Yqnlpzzhw,Schenectady,Ap #733-9610 Mus. Road,141,0
Roselin Adnams,FrEbeQ36,51,Peru,District of Columbia,suqXyPnG,Houston,988-7639 Non Ave,46,11
Kenneth Marsham,qtIdph37,28,France,Texas,MqTWtU,Lincoln,P.O. Box 249; 4757 Ante Rd.,145,0
Nicky Broggetti,QkaUt38,20,India,Kentucky,GCdBOS,Huntington,Ap #552-2792 Tellus. Rd.,70,11
Stacee Ivy,KgkAj39,47,Indonesia,Florida,EAhIQKio,Harrisburg,874-2908 Donec Rd.,144,11
Leona Ferentz,YlHnnjG40,3,Germany,Florida,qmRyf,Oklahoma City,Ap #156-6422 Nunc Rd.,100,4
Filbert Jolliman,prmAqQs41,5,Italy,Florida,xCjtvQ,Richmond,P.O. Box 283; 2359 Magnis Road,75,1
Omero Caudell,PDSCD42,92,Indonesia,Alaska,TijEGk,Boston,1353 Enim; Street,25,7
Yoshi Ilyunin,FSDuGxmK43,30,United Kingdom,Texas,McNdHAAY,Jackson,P.O. Box 890; 6008 Tellus Street,111,8
Lodovico Elson,vlHhoYt44,33,Canada,New York,wWTSNqj,Indianapolis,Ap #484-1223 Diam. Avenue,133,7
Piotr Stilgoe,ibnzlgc45,28,Nigeria,California,UQNnF,Saint Petersburg,1353 Enim; Street,92,8
Hynda Smitham,XbqUjnYtL46,24,Austria,California,sjiOIeO,Louisville,P.O. Box 119; 3106 Posuere Road,13,5
Sholom Butterly,SZHlB47,16,Austria,New York,ijqDEYDHu,Fort Lauderdale,8921 Varius Rd.,113,10
Patty Kernermann,xJdSPO48,89,Singapore,Florida,gFpFiX,Richmond,P.O. Box 388; 3409 Gravida Av.,67,8
Gwendolin Gwinnell,TZfvxlPji49,9,Netherlands,Illinois,bYtfiZ,Toledo,604-8265 Arcu. Rd.,116,4
Gillian Shaw,GlxIDaFHi50,14,Germany,Colorado,QfyXVqXh,Los Angeles,P.O. Box 284; 605 Nec; Street,52,7
Cissy Buy,hENnLB51,45,Ukraine,Illinois,cMeWmvHPT,Las Vegas,Ap #733-9610 Mus. Road,111,11
Thekla Mackelworth,HLTIfO52,45,Spain,Florida,kBCme,Philadelphia,356-5968 Non St.,51,5
Donn Hrinchenko,QQzYgU53,24,United Kingdom,Colorado,YeQYsuEl,Apache Junction,Ap #643-5569 Purus Av.,39,8
Deeyn Trahmel,ZplXMS54,68,Brazil,New York,zZSlFW,Knoxville,P.O. Box 731; 8644 Tempor Rd.,77,2
Yance Nutton,HhqAKiCtY55,48,Turkey,Arkansas,qxymPqiF,Shawnee Mission,488-5930 Molestie Rd.,141,4
Dannel Humbey,jPAcUsxw56,45,Mexico,Indiana,xYfGiFCT,Topeka,P.O. Box 816; 4608 Phasellus Road,38,9
Giordano Hutcheons,LzzaH57,98,Colombia,Tennessee,pjZKSTOo,Columbia,Ap #774-6363 Eu St.,71,4
Ruy MacGraith,UJivDa58,85,South Korea,New York,oTBuUr,Fresno,936-3741 Orci. Av.,25,11
Sherwynd Downe,UEJIXAtkg59,22,Vietnam,Alaska,jfvqVUbL,San Antonio,215-3241 Vulputate Avenue,27,5
Yance Nutton,DDjMsM60,65,China,Kentucky,mBClhsj,Sandy,Ap #620-302 Commodo St.,129,8
Stuart Paradin,iktrv61,61,South Africa,Nebraska,gBXupH,Fort Lauderdale,Ap #237-2449 At; Rd.,89,1
Meg Gloves,RrjVx62,10,Germany,North Carolina,lecMTpY,Albany,P.O. Box 551; 5855 Sagittis Rd.,56,10
Matilda Venton,uHshgInhb63,9,Norway,Indiana,dOJvhggBt,Houston,Ap #470-413 Dictum Av.,38,2
Noll Brastead,QkQVVRkt64,75,Nigeria,Louisiana,rGhAnu,Roanoke,Ap #578-9327 Magna. Street,38,5
Theresina Kasting,DceupFyx65,48,Colombia,Florida,AZTItIwJ,Washington,Ap #949-5192 Id St.,77,11
Malina Bentham,GGIrIOv66,18,Indonesia,Minnesota,KcTQlGXRS,Jersey City,136-102 Metus Avenue,74,3
Norris Skillitt,SflpP67,22,Indonesia,Wisconsin,snsDEc,Jackson,604-8265 Arcu. Rd.,91,8
Thatch Sinclair,ncQfTdP68,87,Brazil,Illinois,pcbfin,Worcester,356-5968 Non St.,127,5
Doralyn Stracey,XsxbTk69,34,Colombia,California,vMrAxvo,Fresno,9615 Dolor. Street,52,1
Rivi Loughrey,PosGmYhor70,92,Brazil,Oregon,rGEwAxnT,Toledo,1569 Sed Rd.,86,6
Albert Brandacci,kxAfNWp71,34,South Korea,Missouri,cEeEkGW,Dallas,Ap #318-1636 Dictum Avenue,99,8
Teodoor Coarser,mxcIAbD72,31,Peru,California,PhfdZ,Davenport,874-2908 Donec Rd.,121,4
Fayina Plose,DOgye73,35,South Africa,New Jersey,XxjjAIHg,Pocatello,157-8722 Tortor. Ave,147,5
Carmelita Hinzer,ODyEh74,61,Nigeria,North Carolina,nwzEqlS,Oakland,P.O. Box 713; 8731 Aenean St.,107,9
Malinde Macbane,YaGSp75,76,Philippines,Mississippi,oVhslxvlQ,New York City,1702 Eros Ave,103,4
Stanton Carlisso,cIKEVnW76,56,Russian Federation,Texas,FSKHj,Oakland,Ap #991-2539 Pellentesque. Road,53,10
Thekla Mackelworth,VVEaZPJMw77,20,Philippines,West Virginia,VjAJZ,Pensacola,8921 Varius Rd.,36,0
Lauren Orchart,jUTOw78,20,Italy,Illinois,hyxzY,Fresno,Ap #821-140 Imperdiet Ave,145,5
Bob Cammoile,voafz79,25,Sweden,Mississippi,MrjhDxiR,Mobile,413-3074 Nibh. Rd.,75,8
Clarke Wallach,mmVjT80,81,New Zealand,Kansas,KKoLx,Brooklyn,227-2209 Ornare; St.,20,1
Alf Swaile,haLIVnS81,39,Colombia,Texas,OcyCOsK,Waltham,Ap #163-3367 Nec Rd.,133,0
Dorelle Mastrantone,yvDRRczr82,38,Belgium,New York,Rivoel,Memphis,3074 Non St.,61,5
Jameson Antrim,RnurL83,60,Sweden,California,TGdStFAI,Migrate,Ap #605-9531 Feugiat. Rd.,64,0
Theodore Erley,BYXXHwFpM84,12,Philippines,District of Columbia,nYeGrVT,Little Rock,P.O. Box 680; 7740 In Rd.,42,1
Saloma MacNair,BvJlgZPO85,74,Costa Rica,Minnesota,SZMnQpqkO,Oakland,Ap #874-7381 Ut Avenue,61,1
Loretta Philbrook,dyPML86,60,Colombia,Florida,DXBaBwt,Cincinnati,Ap #513-8887 Accumsan Street,29,2
Nikolaos Kubica,ghsDr87,25,Philippines,District of Columbia,TQfzMV,Apache Junction,423-1066 Erat. Ave,41,8
Charline Quarrington,zvELYyVdr88,5,Italy,Texas,vvHdwfS,Houston,Ap #484-1223 Diam. Avenue,106,9
Greg Ponder,KlgnIV89,73,South Africa,California,HBaxNt,Colorado Springs,930-1347 Laoreet St.,7,11
Teodoor Coarser,FjVnY90,11,Sweden,Arizona,nEIzWf,Bethesda,Ap #578-9327 Magna. Street,57,8
Iver Wenban,SzaeRNziA91,10,Singapore,Texas,DcVxu,Dallas,Ap #292-2990 Lobortis Road,105,1
Dorelle Mastrantone,gwBPNCk92,10,Vietnam,Florida,rCivpw,Minneapolis,934-4958 Etiam Avenue,138,10
Poul Brunelli,fuefHzJ93,22,Vietnam,Kansas,XdbgPQ,Oakland,Ap #488-4825 Diam Avenue,76,8
Jessamyn Iacopetti,lkWrOCuW94,98,India,Florida,yguXRn,Memphis,941-624 A Street,96,0
Bob Cammoile,qltTOpb95,27,Brazil,Rhode Island,TiVxHw,Sacramento,3845 Ullamcorper Rd.,80,2
Turner Damant,LeJVSM96,3,Italy,Alaska,tQplcZDK,Harrisburg,998-5933 Vel; Rd.,143,6
Omero Caudell,JBGZAiBE97,33,Vietnam,Indiana,YOiriCgqv,Pocatello,790-2110 Sed Ave,139,6
Izzy Rowcliffe,jKJAkjLW98,55,Italy,Missouri,qLZVRT,Springfield,1569 Sed Rd.,113,3
Saloma MacNair,gNnXR99,65,Poland,Florida,dMYNiPp,Washington,988-7639 Non Ave,6,3
